CCSDS_OMM_VERS = 2.0
CREATION_DATE  = 
ORIGINATOR     = 

OBJECT_NAME    = UNKNOWN
OBJECT_ID      = 
CENTER_NAME    = EARTH
REF_FRAME      = TEME
TIME_SYSTEM    = UTC
MEAN_ELEMENT_THEORY = SGP/SGP4

EPOCH          = 2025-12-30T05:43:59.270880
MEAN_MOTION    = 14.46601245
ECCENTRICITY   = .0053923
INCLINATION    = 99.0860
RA_OF_ASC_NODE = 5.3029
ARG_OF_PERICENTER = 106.9542
MEAN_ANOMALY   = 314.2913

EPHEMERIS_TYPE = 0
CLASSIFICATION_TYPE = U
NORAD_CAT_ID   = 87211
ELEMENT_SET_NO = 999
REV_AT_EPOCH   = 71030
BSTAR          = .16299E-2
MEAN_MOTION_DOT = .5939E-4
MEAN_MOTION_DDOT = 0

CCSDS_OMM_VERS = 2.0
CREATION_DATE  = 
ORIGINATOR     = 

OBJECT_NAME    = UNKNOWN
OBJECT_ID      = 
CENTER_NAME    = EARTH
REF_FRAME      = TEME
TIME_SYSTEM    = UTC
MEAN_ELEMENT_THEORY = SGP/SGP4

EPOCH          = 2025-12-30T05:51:24.030432
MEAN_MOTION    = 13.84118847
ECCENTRICITY   = .0072477
INCLINATION    = 100.3311
RA_OF_ASC_NODE = 4.6298
ARG_OF_PERICENTER = 210.2520
MEAN_ANOMALY   = 149.4437

EPHEMERIS_TYPE = 0
CLASSIFICATION_TYPE = U
NORAD_CAT_ID   = 87214
ELEMENT_SET_NO = 999
REV_AT_EPOCH   = 60266
BSTAR          = .86198E-3
MEAN_MOTION_DOT = .927E-5
MEAN_MOTION_DDOT = 0

CCSDS_OMM_VERS = 2.0
CREATION_DATE  = 
ORIGINATOR     = 

OBJECT_NAME    = UNKNOWN
OBJECT_ID      = 
CENTER_NAME    = EARTH
REF_FRAME      = TEME
TIME_SYSTEM    = UTC
MEAN_ELEMENT_THEORY = SGP/SGP4

EPOCH          = 2025-12-27T09:49:13.045728
MEAN_MOTION    = 13.91766724
ECCENTRICITY   = .0102876
INCLINATION    = 99.2548
RA_OF_ASC_NODE = 56.8604
ARG_OF_PERICENTER = 244.2819
MEAN_ANOMALY   = 134.1488

EPHEMERIS_TYPE = 0
CLASSIFICATION_TYPE = U
NORAD_CAT_ID   = 87237
ELEMENT_SET_NO = 999
REV_AT_EPOCH   = 61380
BSTAR          = .31063E-3
MEAN_MOTION_DOT = .367E-5
MEAN_MOTION_DDOT = 0

CCSDS_OMM_VERS = 2.0
CREATION_DATE  = 
ORIGINATOR     = 

OBJECT_NAME    = UNKNOWN
OBJECT_ID      = 
CENTER_NAME    = EARTH
REF_FRAME      = TEME
TIME_SYSTEM    = UTC
MEAN_ELEMENT_THEORY = SGP/SGP4

EPOCH          = 2025-12-31T11:39:17.456544
MEAN_MOTION    = 14.52331324
ECCENTRICITY   = .0017091
INCLINATION    = 82.8733
RA_OF_ASC_NODE = 66.9442
ARG_OF_PERICENTER = 342.6183
MEAN_ANOMALY   = 17.4428

EPHEMERIS_TYPE = 0
CLASSIFICATION_TYPE = U
NORAD_CAT_ID   = 87239
ELEMENT_SET_NO = 999
REV_AT_EPOCH   = 63059
BSTAR          = .38332E-2
MEAN_MOTION_DOT = .1566E-3
MEAN_MOTION_DDOT = 0

CCSDS_OMM_VERS = 2.0
CREATION_DATE  = 
ORIGINATOR     = 

OBJECT_NAME    = UNKNOWN
OBJECT_ID      = 
CENTER_NAME    = EARTH
REF_FRAME      = TEME
TIME_SYSTEM    = UTC
MEAN_ELEMENT_THEORY = SGP/SGP4

EPOCH          = 2025-12-31T10:33:02.156256
MEAN_MOTION    = 14.15970160
ECCENTRICITY   = .0428168
INCLINATION    = 65.6425
RA_OF_ASC_NODE = 357.7930
ARG_OF_PERICENTER = 111.8483
MEAN_ANOMALY   = 328.6359

EPHEMERIS_TYPE = 0
CLASSIFICATION_TYPE = U
NORAD_CAT_ID   = 87245
ELEMENT_SET_NO = 999
REV_AT_EPOCH   = 61685
BSTAR          = .10076E-2
MEAN_MOTION_DOT = .4799E-4
MEAN_MOTION_DDOT = 0

CCSDS_OMM_VERS = 2.0
CREATION_DATE  = 
ORIGINATOR     = 

OBJECT_NAME    = UNKNOWN
OBJECT_ID      = 
CENTER_NAME    = EARTH
REF_FRAME      = TEME
TIME_SYSTEM    = UTC
MEAN_ELEMENT_THEORY = SGP/SGP4

EPOCH          = 2026-01-01T14:25:27.950880
MEAN_MOTION    = 14.21936236
ECCENTRICITY   = .0419453
INCLINATION    = 65.7530
RA_OF_ASC_NODE = 182.9049
ARG_OF_PERICENTER = 63.0442
MEAN_ANOMALY   = 301.2842

EPHEMERIS_TYPE = 0
CLASSIFICATION_TYPE = U
NORAD_CAT_ID   = 87271
ELEMENT_SET_NO = 999
REV_AT_EPOCH   = 61519
BSTAR          = .17837E-2
MEAN_MOTION_DOT = .9691E-4
MEAN_MOTION_DDOT = 0

CCSDS_OMM_VERS = 2.0
CREATION_DATE  = 
ORIGINATOR     = 

OBJECT_NAME    = UNKNOWN
OBJECT_ID      = 
CENTER_NAME    = EARTH
REF_FRAME      = TEME
TIME_SYSTEM    = UTC
MEAN_ELEMENT_THEORY = SGP/SGP4

EPOCH          = 2025-12-27T19:17:38.540256
MEAN_MOTION    = 13.48566867
ECCENTRICITY   = .0128616
INCLINATION    = 64.6134
RA_OF_ASC_NODE = 198.1163
ARG_OF_PERICENTER = 257.7653
MEAN_ANOMALY   = 100.8958

EPHEMERIS_TYPE = 0
CLASSIFICATION_TYPE = U
NORAD_CAT_ID   = 87280
ELEMENT_SET_NO = 999
REV_AT_EPOCH   = 53588
BSTAR          = .68565E-3
MEAN_MOTION_DOT = .366E-5
MEAN_MOTION_DDOT = 0

CCSDS_OMM_VERS = 2.0
CREATION_DATE  = 
ORIGINATOR     = 

OBJECT_NAME    = UNKNOWN
OBJECT_ID      = 
CENTER_NAME    = EARTH
REF_FRAME      = TEME
TIME_SYSTEM    = UTC
MEAN_ELEMENT_THEORY = SGP/SGP4

EPOCH          = 2026-01-01T15:00:42.939936
MEAN_MOTION    = 14.18222992
ECCENTRICITY   = .0427642
INCLINATION    = 65.8981
RA_OF_ASC_NODE = 92.3863
ARG_OF_PERICENTER = 348.8379
MEAN_ANOMALY   = 10.3438

EPHEMERIS_TYPE = 0
CLASSIFICATION_TYPE = U
NORAD_CAT_ID   = 87293
ELEMENT_SET_NO = 999
REV_AT_EPOCH   = 61681
BSTAR          = .18513E-2
MEAN_MOTION_DOT = .9456E-4
MEAN_MOTION_DDOT = 0

CCSDS_OMM_VERS = 2.0
CREATION_DATE  = 
ORIGINATOR     = 

OBJECT_NAME    = UNKNOWN
OBJECT_ID      = 
CENTER_NAME    = EARTH
REF_FRAME      = TEME
TIME_SYSTEM    = UTC
MEAN_ELEMENT_THEORY = SGP/SGP4

EPOCH          = 2025-12-08T05:12:56.249280
MEAN_MOTION    = 13.99405992
ECCENTRICITY   = .0028913
INCLINATION    = 100.0855
RA_OF_ASC_NODE = 324.2212
ARG_OF_PERICENTER = 304.5535
MEAN_ANOMALY   = 55.2897

EPHEMERIS_TYPE = 0
CLASSIFICATION_TYPE = U
NORAD_CAT_ID   = 87300
ELEMENT_SET_NO = 999
REV_AT_EPOCH   = 61248
BSTAR          = .18942E-2
MEAN_MOTION_DOT = .2715E-4
MEAN_MOTION_DDOT = 0

CCSDS_OMM_VERS = 2.0
CREATION_DATE  = 
ORIGINATOR     = 

OBJECT_NAME    = UNKNOWN
OBJECT_ID      = 
CENTER_NAME    = EARTH
REF_FRAME      = TEME
TIME_SYSTEM    = UTC
MEAN_ELEMENT_THEORY = SGP/SGP4

EPOCH          = 2025-12-26T13:04:34.562208
MEAN_MOTION    = 14.75485564
ECCENTRICITY   = .0019602
INCLINATION    = 74.0198
RA_OF_ASC_NODE = 293.9249
ARG_OF_PERICENTER = 260.3135
MEAN_ANOMALY   = 99.5825

EPHEMERIS_TYPE = 0
CLASSIFICATION_TYPE = U
NORAD_CAT_ID   = 87304
ELEMENT_SET_NO = 999
REV_AT_EPOCH   = 64851
BSTAR          = .32234E-3
MEAN_MOTION_DOT = .2166E-4
MEAN_MOTION_DDOT = 0

CCSDS_OMM_VERS = 2.0
CREATION_DATE  = 
ORIGINATOR     = 

OBJECT_NAME    = UNKNOWN
OBJECT_ID      = 
CENTER_NAME    = EARTH
REF_FRAME      = TEME
TIME_SYSTEM    = UTC
MEAN_ELEMENT_THEORY = SGP/SGP4

EPOCH          = 2025-12-31T13:40:21.016416
MEAN_MOTION    = 13.70103621
ECCENTRICITY   = .041575
INCLINATION    = 66.5941
RA_OF_ASC_NODE = 39.3621
ARG_OF_PERICENTER = 42.5311
MEAN_ANOMALY   = 320.7179

EPHEMERIS_TYPE = 0
CLASSIFICATION_TYPE = U
NORAD_CAT_ID   = 87320
ELEMENT_SET_NO = 999
REV_AT_EPOCH   = 59632
BSTAR          = .14226E-2
MEAN_MOTION_DOT = .2236E-4
MEAN_MOTION_DDOT = 0

CCSDS_OMM_VERS = 2.0
CREATION_DATE  = 
ORIGINATOR     = 

OBJECT_NAME    = UNKNOWN
OBJECT_ID      = 
CENTER_NAME    = EARTH
REF_FRAME      = TEME
TIME_SYSTEM    = UTC
MEAN_ELEMENT_THEORY = SGP/SGP4

EPOCH          = 2026-01-01T06:14:14.302464
MEAN_MOTION    = 14.07560954
ECCENTRICITY   = .0050922
INCLINATION    = 89.9932
RA_OF_ASC_NODE = 271.6988
ARG_OF_PERICENTER = 185.6056
MEAN_ANOMALY   = 174.4564

EPHEMERIS_TYPE = 0
CLASSIFICATION_TYPE = U
NORAD_CAT_ID   = 87334
ELEMENT_SET_NO = 999
REV_AT_EPOCH   = 38939
BSTAR          = .17512E-1
MEAN_MOTION_DOT = .29988E-3
MEAN_MOTION_DDOT = 0

CCSDS_OMM_VERS = 2.0
CREATION_DATE  = 
ORIGINATOR     = 

OBJECT_NAME    = UNKNOWN
OBJECT_ID      = 
CENTER_NAME    = EARTH
REF_FRAME      = TEME
TIME_SYSTEM    = UTC
MEAN_ELEMENT_THEORY = SGP/SGP4

EPOCH          = 2026-01-01T04:40:44.455872
MEAN_MOTION    = 14.07927117
ECCENTRICITY   = .0069638
INCLINATION    = 89.9781
RA_OF_ASC_NODE = 267.9710
ARG_OF_PERICENTER = 158.3205
MEAN_ANOMALY   = 202.0952

EPHEMERIS_TYPE = 0
CLASSIFICATION_TYPE = U
NORAD_CAT_ID   = 87335
ELEMENT_SET_NO = 999
REV_AT_EPOCH   = 38971
BSTAR          = .14859E-1
MEAN_MOTION_DOT = .25872E-3
MEAN_MOTION_DDOT = 0

CCSDS_OMM_VERS = 2.0
CREATION_DATE  = 
ORIGINATOR     = 

OBJECT_NAME    = UNKNOWN
OBJECT_ID      = 
CENTER_NAME    = EARTH
REF_FRAME      = TEME
TIME_SYSTEM    = UTC
MEAN_ELEMENT_THEORY = SGP/SGP4

EPOCH          = 2025-12-31T09:57:29.342880
MEAN_MOTION    = 13.96438531
ECCENTRICITY   = .0056422
INCLINATION    = 82.7494
RA_OF_ASC_NODE = 45.3872
ARG_OF_PERICENTER = 275.5476
MEAN_ANOMALY   = 83.9258

EPHEMERIS_TYPE = 0
CLASSIFICATION_TYPE = U
NORAD_CAT_ID   = 87405
ELEMENT_SET_NO = 999
REV_AT_EPOCH   = 61376
BSTAR          = .22841E-2
MEAN_MOTION_DOT = .3209E-4
MEAN_MOTION_DDOT = 0

CCSDS_OMM_VERS = 2.0
CREATION_DATE  = 
ORIGINATOR     = 

OBJECT_NAME    = UNKNOWN
OBJECT_ID      = 
CENTER_NAME    = EARTH
REF_FRAME      = TEME
TIME_SYSTEM    = UTC
MEAN_ELEMENT_THEORY = SGP/SGP4

EPOCH          = 2025-12-28T02:00:03.452256
MEAN_MOTION    = 14.29812580
ECCENTRICITY   = .0069985
INCLINATION    = 65.7832
RA_OF_ASC_NODE = 292.9483
ARG_OF_PERICENTER = 285.4609
MEAN_ANOMALY   = 90.5298

EPHEMERIS_TYPE = 0
CLASSIFICATION_TYPE = U
NORAD_CAT_ID   = 87426
ELEMENT_SET_NO = 999
REV_AT_EPOCH   = 62478
BSTAR          = .26176E-2
MEAN_MOTION_DOT = .6835E-4
MEAN_MOTION_DDOT = 0

CCSDS_OMM_VERS = 2.0
CREATION_DATE  = 
ORIGINATOR     = 

OBJECT_NAME    = UNKNOWN
OBJECT_ID      = 
CENTER_NAME    = EARTH
REF_FRAME      = TEME
TIME_SYSTEM    = UTC
MEAN_ELEMENT_THEORY = SGP/SGP4

EPOCH          = 2025-12-25T12:48:32.997600
MEAN_MOTION    = 13.90638070
ECCENTRICITY   = .0062405
INCLINATION    = 100.4510
RA_OF_ASC_NODE = 207.6335
ARG_OF_PERICENTER = 171.4506
MEAN_ANOMALY   = 188.7726

EPHEMERIS_TYPE = 0
CLASSIFICATION_TYPE = U
NORAD_CAT_ID   = 87448
ELEMENT_SET_NO = 999
REV_AT_EPOCH   = 61101
BSTAR          = .11074E-2
MEAN_MOTION_DOT = .1349E-4
MEAN_MOTION_DDOT = 0

